0 FENGYUN 1C DEB
1 31621U 99025CAB 13282.16953941  .00018792  00000-0  33161-2 0  6161
2 31621 099.4892 249.1747 0114061 265.5759 151.9037 14.63325136339120
0 FENGYUN 1C DEB
1 31621U 99025CAB 13282.72921417  .00014480  00000-0  25589-2 0  6172
2 31621 099.4889 249.8180 0113974 263.8787 220.2786 14.63342251339205
0 FENGYUN 1C DEB
1 31621U 99025CAB 13286.69487417  .00012703  00000-0  22434-2 0  6193
2 31621 099.4881 254.3784 0113642 251.6972 232.4342 14.63435671339786
0 FENGYUN 1C DEB
1 31621U 99025CAB 13288.11858946  .00022756  00000-0  39997-2 0  6204
2 31621 099.4880 256.0162 0113576 247.3175 173.2893 14.63480614339990
0 FENGYUN 1C DEB
1 31621U 99025CAB 13289.14421881  .00018007  00000-0  31673-2 0  6210
2 31621 099.4882 257.1957 0113532 244.1686 176.9779 14.63515262340140
0 FENGYUN 1C DEB
1 31621U 99025CAB 13290.17026801  .00017233  00000-0  30307-2 0  6222
2 31621 099.4885 258.3755 0113479 241.0198 182.9886 14.63539060340290
0 FENGYUN 1C DEB
1 31621U 99025CAB 13291.75352119  .00015044  00000-0  26456-2 0  6230
2 31621 099.4891 260.1966 0113393 236.1527 244.9858 14.63585159340522
0 FENGYUN 1C DEB
1 31621U 99025CAB 13294.13401855  .00016239  00000-0  28503-2 0  6240
2 31621 099.4902 262.9336 0113378 228.8022 188.0791 14.63647189340871
0 FENGYUN 1C DEB
1 31621U 99025CAB 13296.11759495  .00017265  00000-0  30255-2 0  6254
2 31621 099.4900 265.2164 0113392 222.7132 200.1157 14.63699055341169
